[{"OBJECT_NAME":"LYNK TOWER 6","OBJECT_ID":"2024-043AB","EPOCH":"2026-03-09T21:28:38.303328","MEAN_MOTION":15.29548678,"ECCENTRICITY":0.00097492,"INCLINATION":97.5426,"RA_OF_ASC_NODE":204.1954,"ARG_OF_PERICENTER":232.0253,"MEAN_ANOMALY":128.0107,"EPHEMERIS_TYPE":0,"CLASSIFICATION_TYPE":"U","NORAD_CAT_ID":59123,"ELEMENT_SET_NO":999,"REV_AT_EPOCH":11184,"BSTAR":0.00040142146,"MEAN_MOTION_DOT":0.0001144,"MEAN_MOTION_DDOT":0},{"OBJECT_NAME":"STARLINK-31438","OBJECT_ID":"2024-049D","EPOCH":"2026-03-09T05:37:05.824416","MEAN_MOTION":15.27576815,"ECCENTRICITY":6.751e-5,"INCLINATION":43.0033,"RA_OF_ASC_NODE":135.1016,"ARG_OF_PERICENTER":220.49,"MEAN_ANOMALY":139.5902,"EPHEMERIS_TYPE":0,"CLASSIFICATION_TYPE":"U","NORAD_CAT_ID":59234,"ELEMENT_SET_NO":999,"REV_AT_EPOCH":11245,"BSTAR":-8.8894822e-5,"MEAN_MOTION_DOT":-2.707e-5,"MEAN_MOTION_DDOT":0}]
